{"type": "FeatureCollection", "features": [ {"type": "Feature", "properties": {"norad_id": 30447, "name": "FENGYUN 1C DEB", "group": "fengyun-1c-debris", "lat": 38.89206813835148, "lon": 45.25465956176696, "alt_km": 731.4301606532099, "timestamp": "2025-12-21T16:47:55.014709+00:00", "meta": {"OBJECT_NAME": "FENGYUN 1C DEB", "OBJECT_ID": "1999-025AFJ", "EPOCH": "2025-12-21T02:01:42.311136", "MEAN_MOTION": 14.5675123, "ECCENTRICITY": 0.00601375, "INCLINATION": 98.9717, "RA_OF_ASC_NODE": 217.271, "ARG_OF_PERICENTER": 5.8784, "MEAN_ANOMALY": 148.4736, "EPHEMERIS_TYPE": 0, "CLASSIFICATION_TYPE": "U", "NORAD_CAT_ID": 30447, "ELEMENT_SET_NO": 999, "REV_AT_EPOCH": 98217, "BSTAR": 0.0015846182, "MEAN_MOTION_DOT": 7.213e-05, "MEAN_MOTION_DDOT": 0}, "tle": {"line1": "1 30447U 99025AFJ 25355.08451749  .00007213  00000+0  15846-2 0  9999", "line2": "2 30447  98.9717 217.2710 0060137   5.8784 148.4736 14.56751230982174"}}, "geometry": {"type": "Point", "coordinates": [45.25465956176696, 38.89206813835148]}}, {"type": "Feature", "properties": {"norad_id": 30448, "name": "FENGYUN 1C DEB", "group": "fengyun-1c-debris", "lat": -66.21576008332792, "lon": -113.15359520646334, "alt_km": 782.7043370244546, "timestamp": "2025-12-21T16:47:55.014720+00:00", "meta": {"OBJECT_NAME": "FENGYUN 1C DEB", "OBJECT_ID": "1999-025AFK", "EPOCH": "2025-12-21T12:21:12.645216", "MEAN_MOTION": 14.35213071, "ECCENTRICITY": 0.0016889, "INCLINATION": 98.8312, "RA_OF_ASC_NODE": 87.3127, "ARG_OF_PERICENTER": 343.8585, "MEAN_ANOMALY": 27.7085, "EPHEMERIS_TYPE": 0, "CLASSIFICATION_TYPE": "U", "NORAD_CAT_ID": 30448, "ELEMENT_SET_NO": 999, "REV_AT_EPOCH": 97464, "BSTAR": 0.0014045, "MEAN_MOTION_DOT": 3.979e-05, "MEAN_MOTION_DDOT": 0}, "tle": {"line1": "1 30448U 99025AFK 25355.51472969  .00003979  00000+0  14045-2 0  9990", "line2": "2 30448  98.8312  87.3127 0016889 343.8585  27.7085 14.35213071974644"}}, "geometry": {"type": "Point", "coordinates": [-113.15359520646334, -66.21576008332792]}}, {"type": "Feature", "properties": {"norad_id": 30450, "name": "FENGYUN 1C DEB", "group": "fengyun-1c-debris", "lat": 30.49370032641476, "lon": -165.6632868373272, "alt_km": 570.1908088014488, "timestamp": "2025-12-21T16:47:55.014730+00:00", "meta": {"OBJECT_NAME": "FENGYUN 1C DEB", "OBJECT_ID": "1999-025AFM", "EPOCH": "2025-12-21T11:48:21.145824", "MEAN_MOTION": 14.61836786, "ECCENTRICITY": 0.0189523, "INCLINATION": 98.0795, "RA_OF_ASC_NODE": 9.3347, "ARG_OF_PERICENTER": 180.7336, "MEAN_ANOMALY": 315.3069, "EPHEMERIS_TYPE": 0, "CLASSIFICATION_TYPE": "U", "NORAD_CAT_ID": 30450, "ELEMENT_SET_NO": 999, "REV_AT_EPOCH": 99670, "BSTAR": 0.00040482, "MEAN_MOTION_DOT": 2.559e-05, "MEAN_MOTION_DDOT": 0}, "tle": {"line1": "1 30450U 99025AFM 25355.49191141  .00002559  00000+0  40482-3 0  9998", "line2": "2 30450  98.0795   9.3347 0189523 180.7336 315.3069 14.61836786996702"}}, "geometry": {"type": "Point", "coordinates": [-165.6632868373272, 30.49370032641476]}}, {"type": "Feature", "properties": {"norad_id": 30452, "name": "FENGYUN 1C DEB", "group": "fengyun-1c-debris", "lat": 64.98488518579921, "lon": 114.95903510364433, "alt_km": 703.6817691439492, "timestamp": "2025-12-21T16:47:55.014740+00:00", "meta": {"OBJECT_NAME": "FENGYUN 1C DEB", "OBJECT_ID": "1999-025AFP", "EPOCH": "2025-12-19T08:52:52.391712", "MEAN_MOTION": 14.64805367, "ECCENTRICITY": 0.0049499, "INCLINATION": 99.3216, "RA_OF_ASC_NODE": 132.9317, "ARG_OF_PERICENTER": 232.8822, "MEAN_ANOMALY": 154.6222, "EPHEMERIS_TYPE": 0, "CLASSIFICATION_TYPE": "U", "NORAD_CAT_ID": 30452, "ELEMENT_SET_NO": 999, "REV_AT_EPOCH": 98204, "BSTAR": 0.0027554, "MEAN_MOTION_DOT": 0.00014935, "MEAN_MOTION_DDOT": 0}, "tle": {"line1": "1 30452U 99025AFP 25353.37005083  .00014935  00000+0  27554-2 0  9999", "line2": "2 30452  99.3216 132.9317 0049499 232.8822 154.6222 14.64805367982043"}}, "geometry": {"type": "Point", "coordinates": [114.95903510364433, 64.98488518579921]}}, {"type": "Feature", "properties": {"norad_id": 30453, "name": "FENGYUN 1C DEB", "group": "fengyun-1c-debris", "lat": -73.40307519778047, "lon": 98.81724201760923, "alt_km": 806.1362967546584, "timestamp": "2025-12-21T16:47:55.014750+00:00", "meta": {"OBJECT_NAME": "FENGYUN 1C DEB", "OBJECT_ID": "1999-025AFQ", "EPOCH": "2025-12-21T11:01:51.168000", "MEAN_MOTION": 14.24814442, "ECCENTRICITY": 0.0116119, "INCLINATION": 98.8126, "RA_OF_ASC_NODE": 67.2113, "ARG_OF_PERICENTER": 201.2411, "MEAN_ANOMALY": 289.5884, "EPHEMERIS_TYPE": 0, "CLASSIFICATION_TYPE": "U", "NORAD_CAT_ID": 30453, "ELEMENT_SET_NO": 999, "REV_AT_EPOCH": 97358, "BSTAR": 0.0011571, "MEAN_MOTION_DOT": 2.851e-05, "MEAN_MOTION_DDOT": 0}, "tle": {"line1": "1 30453U 99025AFQ 25355.45962000  .00002851  00000+0  11571-2 0  9998", "line2": "2 30453  98.8126  67.2113 0116119 201.2411 289.5884 14.24814442973581"}}, "geometry": {"type": "Point", "coordinates": [98.81724201760923, -73.40307519778047]}}, {"type": "Feature", "properties": {"norad_id": 30454, "name": "FENGYUN 1C DEB", "group": "fengyun-1c-debris", "lat": -18.621769732504696, "lon": -32.07932043870703, "alt_km": 968.3404580857687, "timestamp": "2025-12-21T16:47:55.014760+00:00", "meta": {"OBJECT_NAME": "FENGYUN 1C DEB", "OBJECT_ID": "1999-025AFR", "EPOCH": "2025-12-21T09:08:14.875008", "MEAN_MOTION": 14.15443805, "ECCENTRICITY": 0.0171254, "INCLINATION": 98.1337, "RA_OF_ASC_NODE": 324.8671, "ARG_OF_PERICENTER": 169.782, "MEAN_ANOMALY": 345.59, "EPHEMERIS_TYPE": 0, "CLASSIFICATION_TYPE": "U", "NORAD_CAT_ID": 30454, "ELEMENT_SET_NO": 999, "REV_AT_EPOCH": 96082, "BSTAR": 0.0013704, "MEAN_MOTION_DOT": 3.046e-05, "MEAN_MOTION_DDOT": 0}, "tle": {"line1": "1 30454U 99025AFR 25355.38072772  .00003046  00000+0  13704-2 0  9996", "line2": "2 30454  98.1337 324.8671 0171254 169.7820 345.5900 14.15443805960829"}}, "geometry": {"type": "Point", "coordinates": [-32.07932043870703, -18.621769732504696]}}, {"type": "Feature", "properties": {"norad_id": 30462, "name": "FENGYUN 1C DEB", "group": "fengyun-1c-debris", "lat": 33.57199915560853, "lon": 169.626315669383, "alt_km": 849.4082300155496, "timestamp": "2025-12-21T16:47:55.014770+00:00", "meta": {"OBJECT_NAME": "FENGYUN 1C DEB", "OBJECT_ID": "1999-025AFZ", "EPOCH": "2025-12-21T10:04:03.191232", "MEAN_MOTION": 14.06272105, "ECCENTRICITY": 0.0138997, "INCLINATION": 98.8174, "RA_OF_ASC_NODE": 343.4402, "ARG_OF_PERICENTER": 225.6686, "MEAN_ANOMALY": 302.7033, "EPHEMERIS_TYPE": 0, "CLASSIFICATION_TYPE": "U", "NORAD_CAT_ID": 30462, "ELEMENT_SET_NO": 999, "REV_AT_EPOCH": 96915, "BSTAR": 0.00018444, "MEAN_MOTION_DOT": 2.88e-06, "MEAN_MOTION_DDOT": 0}, "tle": {"line1": "1 30462U 99025AFZ 25355.41948138  .00000288  00000+0  18444-3 0  9999", "line2": "2 30462  98.8174 343.4402 0138997 225.6686 302.7033 14.06272105969152"}}, "geometry": {"type": "Point", "coordinates": [169.626315669383, 33.57199915560853]}}, {"type": "Feature", "properties": {"norad_id": 30464, "name": "FENGYUN 1C DEB", "group": "fengyun-1c-debris", "lat": -30.813096136248966, "lon": 51.171923357811984, "alt_km": 871.5787389742691, "timestamp": "2025-12-21T16:47:55.014780+00:00", "meta": {"OBJECT_NAME": "FENGYUN 1C DEB", "OBJECT_ID": "1999-025AGB", "EPOCH": "2025-12-21T01:45:27.319104", "MEAN_MOTION": 14.10248555, "ECCENTRICITY": 0.01085044, "INCLINATION": 98.8359, "RA_OF_ASC_NODE": 45.233, "ARG_OF_PERICENTER": 234.8255, "MEAN_ANOMALY": 152.8489, "EPHEMERIS_TYPE": 0, "CLASSIFICATION_TYPE": "U", "NORAD_CAT_ID": 30464, "ELEMENT_SET_NO": 999, "REV_AT_EPOCH": 97181, "BSTAR": 0.00011023864, "MEAN_MOTION_DOT": 1.62e-06, "MEAN_MOTION_DDOT": 0}, "tle": {"line1": "1 30464U 99025AGB 25355.07323286  .00000162  00000+0  11024-3 0  9992", "line2": "2 30464  98.8359  45.2330 0108504 234.8255 152.8489 14.10248555971813"}}, "geometry": {"type": "Point", "coordinates": [51.171923357811984, -30.813096136248966]}}, {"type": "Feature", "properties": {"norad_id": 30465, "name": "FENGYUN 1C DEB", "group": "fengyun-1c-debris", "lat": -35.5189253351969, "lon": -102.26997969269554, "alt_km": 794.6141204066153, "timestamp": "2025-12-21T16:47:55.014790+00:00", "meta": {"OBJECT_NAME": "FENGYUN 1C DEB", "OBJECT_ID": "1999-025AGC", "EPOCH": "2025-12-21T06:01:21.627264", "MEAN_MOTION": 14.33951536, "ECCENTRICITY": 0.0016417, "INCLINATION": 98.8293, "RA_OF_ASC_NODE": 83.6417, "ARG_OF_PERICENTER": 4.0683, "MEAN_ANOMALY": 55.434, "EPHEMERIS_TYPE": 0, "CLASSIFICATION_TYPE": "U", "NORAD_CAT_ID": 30465, "ELEMENT_SET_NO": 999, "REV_AT_EPOCH": 97480, "BSTAR": 0.0013288, "MEAN_MOTION_DOT": 3.667e-05, "MEAN_MOTION_DDOT": 0}, "tle": {"line1": "1 30465U 99025AGC 25355.25094476  .00003667  00000+0  13288-2 0  9995", "line2": "2 30465  98.8293  83.6417 0016417   4.0683  55.4340 14.33951536974807"}}, "geometry": {"type": "Point", "coordinates": [-102.26997969269554, -35.5189253351969]}}, {"type": "Feature", "properties": {"norad_id": 30466, "name": "FENGYUN 1C DEB", "group": "fengyun-1c-debris", "lat": 27.507061787218802, "lon": -139.8837262699115, "alt_km": 890.2095588942693, "timestamp": "2025-12-21T16:47:55.014814+00:00", "meta": {"OBJECT_NAME": "FENGYUN 1C DEB", "OBJECT_ID": "1999-025AGD", "EPOCH": "2025-12-21T09:24:11.213280", "MEAN_MOTION": 14.22572853, "ECCENTRICITY": 0.0116067, "INCLINATION": 98.6542, "RA_OF_ASC_NODE": 35.2649, "ARG_OF_PERICENTER": 359.1658, "MEAN_ANOMALY": 15.0883, "EPHEMERIS_TYPE": 0, "CLASSIFICATION_TYPE": "U", "NORAD_CAT_ID": 30466, "ELEMENT_SET_NO": 999, "REV_AT_EPOCH": 97474, "BSTAR": 0.00087784, "MEAN_MOTION_DOT": 2.057e-05, "MEAN_MOTION_DDOT": 0}, "tle": {"line1": "1 30466U 99025AGD 25355.39179645  .00002057  00000+0  87784-3 0  9998", "line2": "2 30466  98.6542  35.2649 0116067 359.1658  15.0883 14.22572853974747"}}, "geometry": {"type": "Point", "coordinates": [-139.8837262699115, 27.507061787218802]}}]}